TDRS 13                 
1 42915U 17047A   26177.23557454 -.00000091  00000+0  00000+0 0  9997
2 42915   3.4537   2.9671 0015051 107.1151 237.6590  1.00272648 32432
QZS-3 (MICHIBIKI-3)     
1 42917U 17048A   26177.26308200 -.00000337  00000+0  00000+0 0  9999
2 42917   0.0665 149.3596 0002273 301.8035  44.9829  1.00272337 32357
AMAZONAS 5              
1 42934U 17053A   26175.01579412 -.00000275  00000+0  00000+0 0  9991
2 42934   0.0291 328.4439 0001951  87.3334 161.0747  1.00268513 32112
ASIASAT 9               
1 42942U 17057A   26176.70253148  .00000000  00000+0  00000+0 0  9991
2 42942   0.0427  53.5801 0002311  31.1880 204.1419  1.00263509 31940
INTELSAT 37E (IS-37E)   
1 42950U 17059A   26177.23436120  .00000000  00000+0  00000+0 0  9994
2 42950   0.0279  23.2048 0002929  72.7744 244.7587  1.00269805 32151
BSAT-4A                 
1 42951U 17059B   26176.97453212 -.00000339  00000+0  00000+0 0  9992
2 42951   0.0353  14.4731 0004233  58.8039 301.4903  1.00271629 31887
QZS-4 (MICHIBIKI-4)     
1 42965U 17062A   26176.33665515 -.00000360  00000+0  00000+0 0  9996
2 42965  40.1041 343.3808 0746739 268.2453 280.8214  1.00297191 31888
SES-11 (ECHOSTAR 105)   
1 42967U 17063A   26177.16016715 -.00000078  00000+0  00000+0 0  9999
2 42967   0.0327 303.7756 0002963 149.3809 133.8508  1.00272985 31812
KOREASAT 5A             
1 42984U 17067A   26176.97513878 -.00000347  00000+0  00000+0 0  9991
2 42984   0.0088 333.7491 0000867 114.9687 289.5950  1.00271390 31614
ALCOMSAT 1              
1 43039U 17078A   26177.23297453  .00000000  00000+0  00000+0 0  9998
2 43039   0.0207   9.6128 0002667  81.1290 242.6889  1.00270084 31384
SBIRS GEO-3 (USA 282)   
1 43162U 18009A   26176.62822324  .00000137  00000+0  00000+0 0  9994
2 43162   2.1900  12.5144 0002240  72.7666 255.2393  1.00272880 30920
AL YAH 3                
1 43174U 18012A   26177.23392786 -.00000146  00000+0  00000+0 0  9994
2 43174   1.5752  83.0131 0004141   9.1941 246.2530  1.00272163 30930
SES-14                  
1 43175U 18012B   26175.51751752 -.00000270  00000+0  00000+0 0  9994
2 43175   0.0183  32.4366 0001157  58.9659 320.0654  1.00271424  7091
GOES 17                 
1 43226U 18022A   26177.19157198 -.00000172  00000+0  00000+0 0  9993
2 43226   0.9597  85.5608 0000680  23.4402 144.7721  1.00272828 30515
HISPASAT 30W-6          
1 43228U 18023A   26175.16445993 -.00000209  00000+0  00000+0 0  9995
2 43228   0.0461  46.3751 0006043  28.4050 226.7322  1.00273784 30470
SUPERBIRD-B3            
1 43271U 18033A   26177.19866563 -.00000081  00000+0  00000+0 0  9997
2 43271   0.0137 336.6991 0001544 132.8561  38.2813  1.00271403 30159
HYLAS 4                 
1 43272U 18033B   26175.80542227  .00000000  00000+0  00000+0 0  9992
2 43272   0.0258  22.8939 0001030  96.9112  49.5742  1.00269267 30142
IRNSS-1I                
1 43286U 18035A   26175.79975266  .00000066  00000+0  00000+0 0  9992
2 43286  28.7725  74.0767 0017621 182.3144 359.3363  1.00275960 30158
USA 283                 
1 43339U 18036A   26176.40866242  .00000000  00000+0  00000+0 0  9992
2 43339   0.0077   1.2048 0000352  95.8048  97.7845  1.00269479 25372
COSMOS 2526             
1 43432U 18037A   26177.04937186 -.00000334  00000+0  00000+0 0  9995
2 43432   0.0264  47.8004 0000579 196.3187 175.8792  1.00269587 30043
APSTAR-6C               
1 43450U 18041A   26177.17394257 -.00000307  00000+0  00000+0 0  9990
2 43450   0.0217 350.3329 0000762  20.3750 100.2287  1.00271510 29902
BANGABANDHUSAT-1        
1 43463U 18044A   26176.59280797  .00000000  00000+0  00000+0 0  9994
2 43463   0.0218  35.0767 0002203  61.5691 149.5917  1.00268170 29794
SES-12                  
1 43488U 18049A   26175.90487203 -.00000260  00000+0  00000+0 0  9990
2 43488   0.0123   7.4810 0000485 300.7127  25.6053  1.00271664 29494
FENGYUN 2H              
1 43491U 18050A   26177.11108912 -.00000121  00000+0  00000+0 0  9994
2 43491   3.0548  78.9761 0001677 124.2863 190.3122  1.00269792 29520
BEIDOU-2 IGSO-7         
1 43539U 18057A   26176.68585466 -.00000023  00000+0  00000+0 0  9999
2 43539  55.1968 162.9827 0104889 238.0070 228.9610  1.00249090 29212
TELSTAR 19V             
1 43562U 18059A   26177.30142321 -.00000269  00000+0  00000+0 0  9998
2 43562   0.0309 140.4591 0002986 335.0763 204.4002  1.00270692 29235
TELKOM 4 (MERAH PUTIH)  
1 43587U 18064A   26176.76026817 -.00000333  00000+0  00000+0 0  9993
2 43587   0.0133  62.7135 0001695  56.8461 176.0199  1.00270306 28968
TELSTAR 18V             
1 43611U 18069A   26176.98007881 -.00000283  00000+0  00000+0 0  9994
2 43611   0.0164 329.6094 0002123 122.9973 312.3188  1.00270510 28723
AZERSPACE 2 (IS-38)     
1 43632U 18074A   26176.17741404  .00000146  00000+0  00000+0 0  9997
2 43632   0.0035  82.5969 0001586  10.3273 289.3716  1.00272596 28528
HORIZONS-3E             
1 43633U 18074B   26175.13266341 -.00000024  00000+0  00000+0 0  9991
2 43633   0.0084 244.9552 0000546  64.2971 179.8035  1.00270268 28412
AEHF-4 (USA 288)        
1 43651U 18079A   26177.30058920 -.00000265  00000+0  00000+0 0  9996
2 43651   1.4347   4.7518 0060129 355.9399 314.4185  1.00270243 28382
BEIDOU-3 G1             
1 43683U 18085A   26177.26958203 -.00000101  00000+0  00000+0 0  9995
2 43683   2.8919  97.1297 0008529 351.3368  82.9063  1.00270999 28154
